LEMUR-2-BALTO           
1 63395U 25052BH  26068.69493058  .00007621  00000+0  63456-3 0  9998
2 63395  97.6978 323.5166 0002279 359.2852   0.8367 14.98934076 53850
STARLINK-34662          
1 64799U 25150K   26068.57456654  .00003926  00000+0  33666-3 0  9998
2 64799  70.0016 134.5869 0003384 269.4870  90.5901 14.98328392 36508
